start=new Date('2021-10-16T00:00:00.000Z').valueOf();
sats=[{"GP_ID":"187279300","REV_AT_EPOCH":"4028","MEAN_MOTION_DOT":"0.00000367","MEAN_ELEMENT_THEORY":"SGP4","MEAN_ANOMALY":"228.3701","ECCENTRICITY":"0.00045810","OBJECT_ID":"2021-006J","RCS_SIZE":"LARGE","TLE_LINE2":"2 47421  97.4840 348.5319 0004581 131.7923 228.3701 15.14319663 40285","CLASSIFICATION_TYPE":"U","CENTER_NAME":"EARTH","MEAN_MOTION":"15.14319663","EPOCH":"2021-10-15T18:07:25.225248","FILE":"3165217","SITE":"AFETR","APOAPSIS":"526.208","EPHEMERIS_TYPE":"0","PERIAPSIS":"519.885","ELEMENT_SET_NO":"999","NORAD_CAT_ID":"47421","BSTAR":"0.00002358700000","COUNTRY_CODE":"US","TLE_LINE1":"1 47421U 21006J   21288.75515307  .00000367  00000-0  23587-4 0  9996","OBJECT_NAME":"STARLINK-2207","DECAY_DATE":null,"REF_FRAME":"TEME","OBJECT_TYPE":"PAYLOAD","SEMIMAJOR_AXIS":"6901.182","RA_OF_ASC_NODE":"348.5319","ARG_OF_PERICENTER":"131.7923","TIME_SYSTEM":"UTC","INCLINATION":"97.4840","MEAN_MOTION_DDOT":"0.0000000000000","PERIOD":"95.092","LAUNCH_DATE":"2021-01-24"},{"MEAN_MOTION_DDOT":"0.0000000000000","INCLINATION":"97.4844","RA_OF_ASC_NODE":"348.5484","ARG_OF_PERICENTER":"131.3618","TIME_SYSTEM":"UTC","OBJECT_TYPE":"PAYLOAD","SEMIMAJOR_AXIS":"6901.203","COUNTRY_CODE":"US","DECAY_DATE":null,"TLE_LINE1":"1 47422U 21006K   21288.75333160 -.00000491  00000-0 -23282-4 0  9994","OBJECT_NAME":"STARLINK-2208","REF_FRAME":"TEME","LAUNCH_DATE":"2021-01-24","PERIOD":"95.093","MEAN_MOTION_DOT":"-0.00000491","MEAN_ELEMENT_THEORY":"SGP4","REV_AT_EPOCH":"4028","GP_ID":"187280050","APOAPSIS":"526.208","EPHEMERIS_TYPE":"0","PERIAPSIS":"519.927","ELEMENT_SET_NO":"999","NORAD_CAT_ID":"47422","BSTAR":"-0.00002328200000","EPOCH":"2021-10-15T18:04:47.850240","FILE":"3165217","SITE":"AFETR","RCS_SIZE":"LARGE","TLE_LINE2":"2 47422  97.4844 348.5484 0004551 131.3618 228.8005 15.14312830 40288","CLASSIFICATION_TYPE":"U","CENTER_NAME":"EARTH","MEAN_MOTION":"15.14312830","ECCENTRICITY":"0.00045510","MEAN_ANOMALY":"228.8005","OBJECT_ID":"2021-006K"},{"GP_ID":"187280568","REV_AT_EPOCH":"3887","MEAN_MOTION_DOT":"-0.00001071","MEAN_ELEMENT_THEORY":"SGP4","ECCENTRICITY":"0.00013750","MEAN_ANOMALY":"271.7147","OBJECT_ID":"2021-009A","RCS_SIZE":"LARGE","TLE_LINE2":"2 47548  53.0576  21.2356 0001375  88.3999 271.7147 15.06377935 38878","CLASSIFICATION_TYPE":"U","CENTER_NAME":"EARTH","MEAN_MOTION":"15.06377935","EPOCH":"2021-10-15T16:32:22.998048","FILE":"3165217","SITE":"AFETR","APOAPSIS":"548.233","EPHEMERIS_TYPE":"0","PERIAPSIS":"546.329","NORAD_CAT_ID":"47548","ELEMENT_SET_NO":"999","BSTAR":"-0.00005307600000","COUNTRY_CODE":"US","TLE_LINE1":"1 47548U 21009A   21288.68915507 -.00001071  00000-0 -53076-4 0  9998","OBJECT_NAME":"STARLINK-1782","DECAY_DATE":null,"REF_FRAME":"TEME","OBJECT_TYPE":"PAYLOAD","SEMIMAJOR_AXIS":"6925.416","RA_OF_ASC_NODE":"21.2356","ARG_OF_PERICENTER":"88.3999","TIME_SYSTEM":"UTC","INCLINATION":"53.0576","MEAN_MOTION_DDOT":"0.0000000000000","PERIOD":"95.594","LAUNCH_DATE":"2021-02-04"},{"GP_ID":"187279316","MEAN_MOTION_DOT":"-0.00002754","MEAN_ELEMENT_THEORY":"SGP4","REV_AT_EPOCH":"3886","TLE_LINE2":"2 47549  53.0569  21.5420 0001506  94.4860 265.6301 15.06380519 38862","CLASSIFICATION_TYPE":"U","RCS_SIZE":"LARGE","MEAN_MOTION":"15.06380519","CENTER_NAME":"EARTH","ECCENTRICITY":"0.00015060","MEAN_ANOMALY":"265.6301","OBJECT_ID":"2021-009B","EPHEMERIS_TYPE":"0","APOAPSIS":"548.316","BSTAR":"-0.00016615000000","PERIAPSIS":"546.230","NORAD_CAT_ID":"47549","ELEMENT_SET_NO":"999","EPOCH":"2021-10-15T14:51:32.052672","SITE":"AFETR","FILE":"3165217","OBJECT_TYPE":"PAYLOAD","SEMIMAJOR_AXIS":"6925.408","COUNTRY_CODE":"US","REF_FRAME":"TEME","DECAY_DATE":null,"TLE_LINE1":"1 47549U 21009B   21288.61912098 -.00002754  00000-0 -16615-3 0  9990","OBJECT_NAME":"STARLINK-1806","MEAN_MOTION_DDOT":"0.0000000000000","INCLINATION":"53.0569","RA_OF_ASC_NODE":"21.5420","TIME_SYSTEM":"UTC","ARG_OF_PERICENTER":"94.4860","PERIOD":"95.593","LAUNCH_DATE":"2021-02-04"},{"LAUNCH_DATE":"2021-02-04","PERIOD":"95.593","INCLINATION":"53.0583","MEAN_MOTION_DDOT":"0.0000000000000","TIME_SYSTEM":"UTC","ARG_OF_PERICENTER":"85.0657","RA_OF_ASC_NODE":"12.0854","SEMIMAJOR_AXIS":"6925.368","OBJECT_TYPE":"PAYLOAD","REF_FRAME":"TEME","OBJECT_NAME":"STARLINK-1909","TLE_LINE1":"1 47550U 21009C   21288.49838833 -.00000859  00000-0 -38788-4 0  9992","DECAY_DATE":null,"COUNTRY_CODE":"US","BSTAR":"-0.00003878800000","NORAD_CAT_ID":"47550","PERIAPSIS":"546.348","ELEMENT_SET_NO":"999","EPHEMERIS_TYPE":"0","APOAPSIS":"548.117","SITE":"AFETR","FILE":"3165217","EPOCH":"2021-10-15T11:57:40.751712","MEAN_MOTION":"15.06393742","CENTER_NAME":"EARTH","TLE_LINE2":"2 47550  53.0583  12.0854 0001277  85.0657 275.0478 15.06393742 38986","CLASSIFICATION_TYPE":"U","RCS_SIZE":"LARGE","OBJECT_ID":"2021-009C","ECCENTRICITY":"0.00012770","MEAN_ANOMALY":"275.0478","MEAN_ELEMENT_THEORY":"SGP4","MEAN_MOTION_DOT":"-0.00000859","REV_AT_EPOCH":"3898","GP_ID":"187280066"},{"LAUNCH_DATE":"2021-02-04","PERIOD":"95.593","MEAN_MOTION_DDOT":"0.0000000000000","INCLINATION":"53.0567","ARG_OF_PERICENTER":"93.7660","TIME_SYSTEM":"UTC","RA_OF_ASC_NODE":"31.8075","SEMIMAJOR_AXIS":"6925.389","OBJECT_TYPE":"PAYLOAD","TLE_LINE1":"1 47551U 21009D   21288.55920778  .00000366  00000-0  43485-4 0  9991","OBJECT_NAME":"STARLINK-1938","DECAY_DATE":null,"REF_FRAME":"TEME","COUNTRY_CODE":"US","ELEMENT_SET_NO":"999","PERIAPSIS":"546.226","NORAD_CAT_ID":"47551","BSTAR":"0.00004348500000","APOAPSIS":"548.282","EPHEMERIS_TYPE":"0","FILE":"3165217","SITE":"AFETR","EPOCH":"2021-10-15T13:25:15.552192","CENTER_NAME":"EARTH","MEAN_MOTION":"15.06386848","RCS_SIZE":"LARGE","TLE_LINE2":"2 47551  53.0567  31.8075 0001484  93.7660 266.3499 15.06386848 38719","CLASSIFICATION_TYPE":"U","OBJECT_ID":"2021-009D","MEAN_ANOMALY":"266.3499","ECCENTRICITY":"0.00014840","MEAN_ELEMENT_THEORY":"SGP4","MEAN_MOTION_DOT":"0.00000366","REV_AT_EPOCH":"3871","GP_ID":"187280318"},{"DECAY_DATE":null,"TLE_LINE1":"1 47552U 21009E   21288.63017164 -.00001135  00000-0 -57329-4 0  9996","OBJECT_NAME":"STARLINK-1940","REF_FRAME":"TEME","COUNTRY_CODE":"US","SEMIMAJOR_AXIS":"6925.399","OBJECT_TYPE":"PAYLOAD","ARG_OF_PERICENTER":"97.1299","TIME_SYSTEM":"UTC","RA_OF_ASC_NODE":"21.5059","INCLINATION":"53.0562","MEAN_MOTION_DDOT":"0.0000000000000","PERIOD":"95.593","LAUNCH_DATE":"2021-02-04","GP_ID":"187281068","REV_AT_EPOCH":"3886","MEAN_ELEMENT_THEORY":"SGP4","MEAN_MOTION_DOT":"-0.00001135","OBJECT_ID":"2021-009E","ECCENTRICITY":"0.00011940","MEAN_ANOMALY":"262.9825","CENTER_NAME":"EARTH","MEAN_MOTION":"15.06383475","RCS_SIZE":"LARGE","CLASSIFICATION_TYPE":"U","TLE_LINE2":"2 47552  53.0562  21.5059 0001194  97.1299 262.9825 15.06383475 38861","FILE":"3165217","SITE":"AFETR","EPOCH":"2021-10-15T15:07:26.829696","PERIAPSIS":"546.437","ELEMENT_SET_NO":"999","NORAD_CAT_ID":"47552","BSTAR":"-0.00005732900000","APOAPSIS":"548.091","EPHEMERIS_TYPE":"0"},{"NORAD_CAT_ID":"47553","PERIAPSIS":"543.550","ELEMENT_SET_NO":"999","BSTAR":"-0.00004235200000","APOAPSIS":"550.985","EPHEMERIS_TYPE":"0","FILE":"3165217","SITE":"AFETR","EPOCH":"2021-10-15T16:21:44.493408","CENTER_NAME":"EARTH","MEAN_MOTION":"15.06382403","RCS_SIZE":"LARGE","CLASSIFICATION_TYPE":"U","TLE_LINE2":"2 47553  53.0575  21.2747 0005368 227.5499 132.5036 15.06382403 38872","OBJECT_ID":"2021-009F","MEAN_ANOMALY":"132.5036","ECCENTRICITY":"0.00053680","MEAN_ELEMENT_THEORY":"SGP4","MEAN_MOTION_DOT":"-0.00000914","REV_AT_EPOCH":"3887","GP_ID":"187279816","LAUNCH_DATE":"2021-02-04","PERIOD":"95.593","MEAN_MOTION_DDOT":"0.0000000000000","INCLINATION":"53.0575","ARG_OF_PERICENTER":"227.5499","TIME_SYSTEM":"UTC","RA_OF_ASC_NODE":"21.2747","SEMIMAJOR_AXIS":"6925.402","OBJECT_TYPE":"PAYLOAD","TLE_LINE1":"1 47553U 21009F   21288.68176497 -.00000914  00000-0 -42352-4 0  9991","DECAY_DATE":null,"OBJECT_NAME":"STARLINK-1951","REF_FRAME":"TEME","COUNTRY_CODE":"US"},{"GP_ID":"187279567","REV_AT_EPOCH":"3858","MEAN_ELEMENT_THEORY":"SGP4","MEAN_MOTION_DOT":"-0.00001281","OBJECT_ID":"2021-009G","ECCENTRICITY":"0.00048610","MEAN_ANOMALY":"334.6460","MEAN_MOTION":"15.06386568","CENTER_NAME":"EARTH","TLE_LINE2":"2 47554  53.0571  41.4652 0004861  25.4767 334.6460 15.06386568 38588","CLASSIFICATION_TYPE":"U","RCS_SIZE":"LARGE","SITE":"AFETR","FILE":"3165217","EPOCH":"2021-10-15T15:15:24.479136","BSTAR":"-0.00006699300000","PERIAPSIS":"543.888","NORAD_CAT_ID":"47554","ELEMENT_SET_NO":"999","EPHEMERIS_TYPE":"0","APOAPSIS":"550.621","REF_FRAME":"TEME","DECAY_DATE":null,"TLE_LINE1":"1 47554U 21009G   21288.63569999 -.00001281  00000-0 -66993-4 0  9995","OBJECT_NAME":"STARLINK-1953","COUNTRY_CODE":"US","SEMIMAJOR_AXIS":"6925.390","OBJECT_TYPE":"PAYLOAD","TIME_SYSTEM":"UTC","ARG_OF_PERICENTER":"25.4767","RA_OF_ASC_NODE":"41.4652","MEAN_MOTION_DDOT":"0.0000000000000","INCLINATION":"53.0571","PERIOD":"95.593","LAUNCH_DATE":"2021-02-04"},{"OBJECT_ID":"2021-009H","ECCENTRICITY":"0.00012960","MEAN_ANOMALY":"287.6907","CENTER_NAME":"EARTH","MEAN_MOTION":"15.06389279","RCS_SIZE":"LARGE","CLASSIFICATION_TYPE":"U","TLE_LINE2":"2 47555  53.0548  31.3004 0001296  72.4223 287.6907 15.06389279 38732","FILE":"3165217","SITE":"AFETR","EPOCH":"2021-10-15T16:15:06.643872","PERIAPSIS":"546.349","NORAD_CAT_ID":"47555","ELEMENT_SET_NO":"999","BSTAR":"-0.00008168300000","APOAPSIS":"548.144","EPHEMERIS_TYPE":"0","GP_ID":"187280818","REV_AT_EPOCH":"3873","MEAN_ELEMENT_THEORY":"SGP4","MEAN_MOTION_DOT":"-0.00001497","PERIOD":"95.593","LAUNCH_DATE":"2021-02-04","DECAY_DATE":null,"TLE_LINE1":"1 47555U 21009H   21288.67716023 -.00001497  00000-0 -81683-4 0  9994","OBJECT_NAME":"STARLINK-1954","REF_FRAME":"TEME","COUNTRY_CODE":"US","SEMIMAJOR_AXIS":"6925.381","OBJECT_TYPE":"PAYLOAD","ARG_OF_PERICENTER":"72.4223","TIME_SYSTEM":"UTC","RA_OF_ASC_NODE":"31.3004","MEAN_MOTION_DDOT":"0.0000000000000","INCLINATION":"53.0548"}];
